0 COSMOS 2251 DEB
1 37980U 93036BQF 13276.28025394  .00021856  00000-0  46247-2 0  1247
2 37980 074.0219 133.9345 0066193 113.7718 217.9666 14.57825675197108
